FLOCK 4Y-15             
1 55068U 23001BM  23019.79721087  .00012373  00000+0  69236-3 0  9990
2 55068  97.5002  81.6553 0016317 158.3979 201.7944 15.13478599  2604
FLOCK 4Y-9              
1 55069U 23001BN  23019.79729175  .00011781  00000+0  66001-3 0  9996
2 55069  97.5036  81.6679 0015415 165.9467 194.2196 15.13461111  2602
FLOCK 4Y-26             
1 55070U 23001BP  23019.79723045  .00012010  00000+0  67188-3 0  9991
2 55070  97.4997  81.6549 0016024 156.4402 203.7566 15.13501686  2605
FLOCK 4Y-8              
1 55071U 23001BQ  23019.79758682  .00012295  00000+0  68879-3 0  9990
2 55071  97.5012  81.6566 0016144 160.3101 199.8757 15.13443358  2605
2023-001BR              
1 55072U 23001BR  23019.79748344  .00016283  00000+0  90905-3 0  9991
2 55072  97.5059  81.6706 0016012 160.4045 199.7805 15.13502191  2609
2023-001BS              
1 55073U 23001BS  23019.79747722  .00015546  00000+0  85105-3 0  9998
2 55073  97.5033  81.6621 0017967 141.7293 218.5218 15.14184287  2606
FLOCK 4Y-2              
1 55074U 23001BT  23019.79652703  .00012508  00000+0  69821-3 0  9995
2 55074  97.5043  81.6702 0015914 164.8667 195.3044 15.13569992  2607
FLOCK 4Y-36             
1 55075U 23001BU  23019.79662615  .00013131  00000+0  73335-3 0  9997
2 55075  97.5022  81.6600 0016153 162.8148 197.3634 15.13538128  2604
2023-001BV              
1 55076U 23001BV  23019.80041640  .00006685  00000+0  38015-3 0  9991
2 55076  97.5026  81.6556 0015439 160.3816 199.8012 15.13101576  2600
FLOCK 4Y-21             
1 55077U 23001BW  23019.79642600  .00012464  00000+0  69589-3 0  9995
2 55077  97.5049  81.6706 0016237 162.8716 197.3067 15.13560270  2609
FLOCK 4Y-31             
1 55078U 23001BX  23019.79631180  .00012266  00000+0  68479-3 0  9994
2 55078  97.5006  81.6587 0016508 157.2702 202.9264 15.13562033  2605
FLOCK 4Y-13             
1 55079U 23001BY  23019.79637896  .00011888  00000+0  66412-3 0  9999
2 55079  97.5039  81.6675 0016535 162.0637 198.1181 15.13544708  2604
FLOCK 4Y-23             
1 55080U 23001BZ  23019.79606011  .00012175  00000+0  67925-3 0  9996
2 55080  97.5014  81.6600 0016738 159.6583 200.5319 15.13585783  2603
2023-001CA              
1 55081U 23001CA  23019.79640836  .00010735  00000+0  60038-3 0  9998
2 55081  97.5052  81.6704 0016775 159.2782 200.9133 15.13530088  2605
FLOCK 4Y-34             
1 55082U 23001CB  23019.59776232  .00013716  00000+0  76459-3 0  9993
2 55082  97.5021  81.4678 0016565 158.9758 201.2158 15.13588343  2570
FLOCK 4Y-27             
1 55083U 23001CC  23020.12657651  .00012058  00000+0  67253-3 0  9998
2 55083  97.5013  81.9858 0016777 158.7332 201.4600 15.13595456  2654
2023-001CD              
1 55084U 23001CD  23020.12604006  .00011503  00000+0  64110-3 0  9998
2 55084  97.4998  81.9844 0016426 151.8650 208.3472 15.13641126  2658
2023-001CE              
1 55085U 23001CE  23020.12530950  .00017489  00000+0  96781-3 0  9993
2 55085  97.5006  81.9865 0016728 154.9862 205.2183 15.13792472  2653
2023-001CF              
1 55086U 23001CF  23020.12510894  .00018088  00000+0  10001-2 0  9995
2 55086  97.5036  81.9940 0016728 154.4921 205.7139 15.13814810  2659
SPACEBEE-167            
1 55087U 23001CG  23020.12465510  .00020470  00000+0  11285-2 0  9993
2 55087  97.5016  81.9901 0016614 153.9619 206.2452 15.13894459  2658
2023-001CH              
1 55088U 23001CH  23020.05858091  .00018070  00000+0  99777-3 0  9992
2 55088  97.5077  81.9376 0016946 155.3150 204.8896 15.13859943  2640
SPACEBEE-163            
1 55089U 23001CJ  23020.05796253  .00020711  00000+0  11401-2 0  9996
2 55089  97.5013  81.9256 0016460 154.5840 205.6204 15.13946548  2646
2023-001CK              
1 55090U 23001CK  23020.05840532  .00015251  00000+0  84350-3 0  9995
2 55090  97.5039  81.9311 0017308 157.1018 203.0989 15.13832636  2640
SPACEBEE-164            
1 55091U 23001CL  23020.05753802  .00021138  00000+0  11615-2 0  9993
2 55091  97.5015  81.9259 0016969 153.6890 206.5207 15.14000171  2640
SPACEBEE-166            
1 55092U 23001CM  23020.05660155  .00024546  00000+0  13419-2 0  9992
2 55092  97.5018  81.9267 0018826 155.3771 204.8363 15.14120909  2640
2023-001CN              
1 55093U 23001CN  23019.72733575  .00008993  00000+0  49921-3 0  9998
2 55093  97.5014  81.6004 0017168 153.2624 206.9497 15.13839874  2597
SPACEBEE-165            
1 55094U 23001CP  23019.99075153  .00024135  00000+0  13233-2 0  9991
2 55094  97.5014  81.8597 0015792 152.9062 207.2997 15.14066859  2630
SPACEBEE-162            
1 55095U 23001CQ  23020.05682619  .00022113  00000+0  12124-2 0  9994
2 55095  97.5013  81.9267 0017198 153.3083 206.9038 15.14066368  2643
SPACEBEE-161            
1 55096U 23001CR  23020.05669147  .00022213  00000+0  12173-2 0  9991
2 55096  97.5013  81.9268 0017239 153.2561 206.9564 15.14080840  2646
SPACEBEE-160            
1 55097U 23001CS  23020.05649437  .00022878  00000+0  12526-2 0  9991
2 55097  97.5013  81.9272 0017336 153.2099 207.0031 15.14106005  2649
BDSAT-2                 
1 55098U 23001CT  23020.05711085  .00016325  00000+0  89909-3 0  9991
2 55098  97.5069  81.9381 0017566 153.3463 206.8676 15.13965417  2644
SPACEBEE-156            
1 55099U 23001CU  23020.05642118  .00022810  00000+0  12487-2 0  9994
2 55099  97.5013  81.9270 0017321 153.2223 206.9907 15.14111239  2647
SPACEBEE-158            
1 55100U 23001CV  23019.99033710  .00024134  00000+0  13204-2 0  9999
2 55100  97.5012  81.8611 0017628 153.8647 206.3478 15.14115949  2631
SPACEBEE-159            
1 55101U 23001CW  23020.05573712  .00025788  00000+0  14054-2 0  9990
2 55101  97.5014  81.9276 0018172 152.4391 207.7809 15.14232731  2641
SPACEBEE-157            
1 55102U 23001CX  23020.05597603  .00025238  00000+0  13782-2 0  9993
2 55102  97.5011  81.9274 0016752 156.2870 203.9137 15.14187652  2646
2023-001CY              
1 55103U 23001CY  23020.05703735  .00010243  00000+0  56717-3 0  9995
2 55103  97.5049  81.9337 0017838 151.6572 208.5633 15.13881612  2640
MARIO                   
1 55123U 98067UQ  23020.17930989  .00104815  00000+0  15954-2 0  9993
2 55123  51.6419 341.3615 0001088   2.0620 358.0375 15.53683238  3440
NUTSAT                  
1 55124U 98067UR  23019.72509334  .00151460  00000+0  22186-2 0  9992
2 55124  51.6414 343.5788 0000322  41.5628 318.5387 15.54535380  3367
LORIS                   
1 55125U 98067US  23020.18270592  .00084092  00000+0  13110-2 0  9999
2 55125  51.6417 341.3840 0002066 341.2119  18.8795 15.53124127  3453
ORCASAT                 
1 55126U 98067UT  23019.28365134  .00061239  00000+0  97523-3 0  9995
2 55126  51.6427 345.8790 0002398 335.2724  24.8151 15.52672048  3318
DANTESAT                
1 55127U 98067UU  23020.17384291  .00925659  00000+0  52015-2 0  9992
2 55127  51.6393 339.8182 0011400 157.1619 202.9891 15.76074625  3433
TJREVERB                
1 55128U 98067UV  23019.47866835  .00079437  00000+0  12588-2 0  9998
2 55128  51.6420 344.9315 0003079 307.7036  52.3675 15.52695115  3332
SPORT                   
1 55129U 98067UW  23019.48494503  .00044297  00000+0  73525-3 0  9994
2 55129  51.6423 344.9724 0001825 294.9756  65.1044 15.51658172  3336
PETITSAT                
1 55130U 98067UX  23019.41746841  .00127099  00000+0  19814-2 0  9996
2 55130  51.6419 345.2722 0001319 247.2815 112.8036 15.52922358  3275
SHIJIAN-23 (SJ-23)      
1 55131U 23002A   23019.65072708 -.00000293  00000+0  00000+0 0  9995
2 55131   0.5062  95.3193 0031750 239.0014 165.5239  0.99666510   211
CZ-7A R/B               
1 55132U 23002B   23019.80373254  .00190261  11195-5  29810-2 0  9993
2 55132  16.4794  94.3864 7186389 187.3529 149.1775  2.45339386   265
2023-003A               
1 55133U 23003A   23020.08576598  .00027263  00000+0  13565-2 0  9991
2 55133  97.2711 109.7532 0007112 219.2421 260.6550 15.17557219  1643
2023-003B               
1 55134U 23003B   23020.25197678  .00012070  00000+0  54347-3 0  9993
2 55134  97.2716 109.9603 0012196 250.9310 169.9765 15.21150992  1660
2023-003C               
1 55135U 23003C   23020.12461106  .00010663  00000+0  47816-3 0  9999
2 55135  97.2741 109.8444 0012089 255.3933 195.9045 15.21322446  1667
2023-003D               
1 55136U 23003D   23020.12370020  .00017841  00000+0  79223-3 0  9996
2 55136  97.2713 109.8416 0011755 257.9763 194.0777 15.21543882  1654
2023-003E               
1 55137U 23003E   23020.12366198  .00010772  00000+0  48116-3 0  9991
2 55137  97.2688 109.8382 0012289 257.6231 193.4770 15.21451731  1655
ONEWEB-0532             
1 55140U 23004A   23019.91667824 -.00034169  00000+0 -34733-2 0  9998
2 55140  86.5125 281.4847 0011377 176.8960 233.1316 14.91052540  1599
ONEWEB-0533             
1 55141U 23004B   23020.16667824  .00049354  00000+0  49352-2 0  9991
2 55141  86.5118 281.3699 0011965 176.7226 139.4400 14.91168476  1636
ONEWEB-0541             
1 55142U 23004C   23020.16667824  .00083058  00000+0  83585-2 0  9997
2 55142  86.5134 281.3765 0010149 175.0681 128.0175 14.90744026  1632
ONEWEB-0543             
1 55143U 23004D   23020.16667824  .00050936  00000+0  51513-2 0  9993
2 55143  86.5144 281.3788 0009844 175.6893 124.7637 14.90724253  1636
ONEWEB-0544             
1 55144U 23004E   23019.58334491 -.00005381  00000+0 -53867-3 0  9990
2 55144  86.5117 281.6297 0013543 186.5260 257.1311 14.91667042  1302
ONEWEB-0560             
1 55145U 23004F   23020.16667824  .00049044  00000+0  48378-2 0  9998
2 55145  86.5133 281.3687 0013606 184.7934 150.2882 14.91699887  1633
ONEWEB-0565             
1 55146U 23004G   23019.91667824 -.00032747  00000+0 -32496-2 0  9998
2 55146  86.5116 281.4788 0013894 190.4607 251.7281 14.91983096  1603
ONEWEB-0567             
1 55147U 23004H   23020.16667824  .00048009  00000+0  47137-2 0  9992
2 55147  86.5107 281.3673 0013749 188.2125 153.6078 14.91889907  1638
